{
  "type": "FeatureCollection",
  "features": [
    {
      "type": "Feature",
      "properties": {
        "norad_id": 35616,
        "name": "IRIDIUM 33 DEB",
        "group": "iridium-33-debris",
        "lat": -36.69890434218312,
        "lon": -16.29831200735337,
        "alt_km": 636.4360962656083,
        "timestamp": "2025-12-11T07:02:24.115779+00:00",
        "meta_object_name": "IRIDIUM 33 DEB",
        "meta_object_id": "1997-051QN",
        "meta_epoch": "2025-12-09T17:55:38.523360",
        "meta_mean_motion": 14.816872,
        "meta_eccentricity": 0.00097125,
        "meta_inclination": 86.355,
        "meta_ra_of_asc_node": 347.1304,
        "meta_arg_of_pericenter": 173.7748,
        "meta_mean_anomaly": 186.3597,
        "meta_ephemeris_type": 0,
        "meta_classification_type": "U",
        "meta_norad_cat_id": 35616,
        "meta_element_set_no": 999,
        "meta_rev_at_epoch": 87530,
        "meta_bstar": 0.0025734917,
        "meta_mean_motion_dot": 0.00020338,
        "meta_mean_motion_ddot": 0,
        "tle_line1": "1 35616U 97051QN  25343.74697365  .00020338  00000+0  25735-2 0  9996",
        "tle_line2": "2 35616  86.3550 347.1304 0009712 173.7748 186.3597 14.81687200875307"
      },
      "geometry": {
        "type": "Point",
        "coordinates": [
          -16.29831200735337,
          -36.69890434218312
        ]
      }
    },
    {
      "type": "Feature",
      "properties": {
        "norad_id": 35618,
        "name": "IRIDIUM 33 DEB",
        "group": "iridium-33-debris",
        "lat": -62.22348772563937,
        "lon": -178.8865226268266,
        "alt_km": 742.7059114114254,
        "timestamp": "2025-12-11T07:02:24.115789+00:00",
        "meta_object_name": "IRIDIUM 33 DEB",
        "meta_object_id": "1997-051QQ",
        "meta_epoch": "2025-12-05T07:42:53.148672",
        "meta_mean_motion": 14.52258119,
        "meta_eccentricity": 0.00302089,
        "meta_inclination": 86.3407,
        "meta_ra_of_asc_node": 356.7447,
        "meta_arg_of_pericenter": 46.3254,
        "meta_mean_anomaly": 314.0448,
        "meta_ephemeris_type": 0,
        "meta_classification_type": "U",
        "meta_norad_cat_id": 35618,
        "meta_element_set_no": 999,
        "meta_rev_at_epoch": 65286,
        "meta_bstar": 0.00091388234,
        "meta_mean_motion_dot": 3.753e-05,
        "meta_mean_motion_ddot": 0,
        "tle_line1": "1 35618U 97051QQ  25339.32144848  .00003753  00000+0  91388-3 0  9990",
        "tle_line2": "2 35618  86.3407 356.7447 0030208  46.3254 314.0448 14.52258119652865"
      },
      "geometry": {
        "type": "Point",
        "coordinates": [
          -178.8865226268266,
          -62.22348772563937
        ]
      }
    },
    {
      "type": "Feature",
      "properties": {
        "norad_id": 35620,
        "name": "IRIDIUM 33 DEB",
        "group": "iridium-33-debris",
        "lat": -59.632070862915114,
        "lon": -148.12514178422234,
        "alt_km": 690.2207281180181,
        "timestamp": "2025-12-11T07:02:24.115800+00:00",
        "meta_object_name": "IRIDIUM 33 DEB",
        "meta_object_id": "1997-051QS",
        "meta_epoch": "2025-12-09T21:54:44.064864",
        "meta_mean_motion": 14.37894536,
        "meta_eccentricity": 0.01422721,
        "meta_inclination": 86.3878,
        "meta_ra_of_asc_node": 218.6459,
        "meta_arg_of_pericenter": 268.3253,
        "meta_mean_anomaly": 90.1645,
        "meta_ephemeris_type": 0,
        "meta_classification_type": "U",
        "meta_norad_cat_id": 35620,
        "meta_element_set_no": 999,
        "meta_rev_at_epoch": 59925,
        "meta_bstar": 0.0077821175,
        "meta_mean_motion_dot": 0.00026494,
        "meta_mean_motion_ddot": 0,
        "tle_line1": "1 35620U 97051QS  25343.91301001  .00026494  00000+0  77821-2 0  9991",
        "tle_line2": "2 35620  86.3878 218.6459 0142272 268.3253  90.1645 14.37894536599255"
      },
      "geometry": {
        "type": "Point",
        "coordinates": [
          -148.12514178422234,
          -59.632070862915114
        ]
      }
    },
    {
      "type": "Feature",
      "properties": {
        "norad_id": 35622,
        "name": "IRIDIUM 33 DEB",
        "group": "iridium-33-debris",
        "lat": 38.74097925818934,
        "lon": -92.63134684579853,
        "alt_km": 548.5331369262794,
        "timestamp": "2025-12-11T07:02:24.115810+00:00",
        "meta_object_name": "IRIDIUM 33 DEB",
        "meta_object_id": "1997-051QU",
        "meta_epoch": "2025-12-08T18:19:37.394400",
        "meta_mean_motion": 15.03927644,
        "meta_eccentricity": 0.00075851,
        "meta_inclination": 86.2056,
        "meta_ra_of_asc_node": 265.5603,
        "meta_arg_of_pericenter": 342.656,
        "meta_mean_anomaly": 47.239,
        "meta_ephemeris_type": 0,
        "meta_classification_type": "U",
        "meta_norad_cat_id": 35622,
        "meta_element_set_no": 999,
        "meta_rev_at_epoch": 87300,
        "meta_bstar": 0.0061817818,
        "meta_mean_motion_dot": 0.00086206,
        "meta_mean_motion_ddot": 0,
        "tle_line1": "1 35622U 97051QU  25342.76362725  .00086206  00000+0  61818-2 0  9991",
        "tle_line2": "2 35622  86.2056 265.5603 0007585 342.6560  47.2390 15.03927644873009"
      },
      "geometry": {
        "type": "Point",
        "coordinates": [
          -92.63134684579853,
          38.74097925818934
        ]
      }
    },
    {
      "type": "Feature",
      "properties": {
        "norad_id": 35628,
        "name": "IRIDIUM 33 DEB",
        "group": "iridium-33-debris",
        "lat": 60.204502212328585,
        "lon": 16.10828978106038,
        "alt_km": 660.8423716677298,
        "timestamp": "2025-12-11T07:02:24.115820+00:00",
        "meta_object_name": "IRIDIUM 33 DEB",
        "meta_object_id": "1997-051RA",
        "meta_epoch": "2025-12-08T19:51:11.189376",
        "meta_mean_motion": 14.67493768,
        "meta_eccentricity": 0.00109309,
        "meta_inclination": 86.3576,
        "meta_ra_of_asc_node": 10.8203,
        "meta_arg_of_pericenter": 356.3974,
        "meta_mean_anomaly": 3.7159,
        "meta_ephemeris_type": 0,
        "meta_classification_type": "U",
        "meta_norad_cat_id": 35628,
        "meta_element_set_no": 999,
        "meta_rev_at_epoch": 86389,
        "meta_bstar": 0.0020097942,
        "meta_mean_motion_dot": 0.00011424,
        "meta_mean_motion_ddot": 0,
        "tle_line1": "1 35628U 97051RA  25342.82721284  .00011424  00000+0  20098-2 0  9998",
        "tle_line2": "2 35628  86.3576  10.8203 0010930 356.3974   3.7159 14.67493768863899"
      },
      "geometry": {
        "type": "Point",
        "coordinates": [
          16.10828978106038,
          60.204502212328585
        ]
      }
    },
    {
      "type": "Feature",
      "properties": {
        "norad_id": 35631,
        "name": "IRIDIUM 33 DEB",
        "group": "iridium-33-debris",
        "lat": 61.27580748260386,
        "lon": 28.255664700058244,
        "alt_km": 721.9805974731444,
        "timestamp": "2025-12-11T07:02:24.115830+00:00",
        "meta_object_name": "IRIDIUM 33 DEB",
        "meta_object_id": "1997-051RD",
        "meta_epoch": "2025-12-10T09:15:32.244768",
        "meta_mean_motion": 14.47300819,
        "meta_eccentricity": 0.00187841,
        "meta_inclination": 86.3671,
        "meta_ra_of_asc_node": 21.9891,
        "meta_arg_of_pericenter": 124.9735,
        "meta_mean_anomaly": 251.2059,
        "meta_ephemeris_type": 0,
        "meta_classification_type": "U",
        "meta_norad_cat_id": 35631,
        "meta_element_set_no": 999,
        "meta_rev_at_epoch": 87163,
        "meta_bstar": 0.00053892665,
        "meta_mean_motion_dot": 1.995e-05,
        "meta_mean_motion_ddot": 0,
        "tle_line1": "1 35631U 97051RD  25344.38578987  .00001995  00000+0  53893-3 0  9997",
        "tle_line2": "2 35631  86.3671  21.9891 0018784 124.9735 251.2059 14.47300819871636"
      },
      "geometry": {
        "type": "Point",
        "coordinates": [
          28.255664700058244,
          61.27580748260386
        ]
      }
    },
    {
      "type": "Feature",
      "properties": {
        "norad_id": 35680,
        "name": "IRIDIUM 33 DEB",
        "group": "iridium-33-debris",
        "lat": 11.530548146825168,
        "lon": -158.6342097231357,
        "alt_km": 867.9334074827057,
        "timestamp": "2025-12-11T07:02:24.115841+00:00",
        "meta_object_name": "IRIDIUM 33 DEB",
        "meta_object_id": "1997-051RJ",
        "meta_epoch": "2025-12-10T20:56:41.217792",
        "meta_mean_motion": 14.2086329,
        "meta_eccentricity": 0.01504502,
        "meta_inclination": 86.1029,
        "meta_ra_of_asc_node": 22.3487,
        "meta_arg_of_pericenter": 284.4866,
        "meta_mean_anomaly": 255.1489,
        "meta_ephemeris_type": 0,
        "meta_classification_type": "U",
        "meta_norad_cat_id": 35680,
        "meta_element_set_no": 999,
        "meta_rev_at_epoch": 60674,
        "meta_bstar": 0.0056945656,
        "meta_mean_motion_dot": 0.00013831,
        "meta_mean_motion_ddot": 0,
        "tle_line1": "1 35680U 97051RJ  25344.87269928  .00013831  00000+0  56946-2 0  9990",
        "tle_line2": "2 35680  86.1029  22.3487 0150450 284.4866 255.1489 14.20863290606741"
      },
      "geometry": {
        "type": "Point",
        "coordinates": [
          -158.6342097231357,
          11.530548146825168
        ]
      }
    }
  ]
}